{"type": "FeatureCollection", "features": [ {"type": "Feature", "properties": {"norad_id": 30928, "name": "FENGYUN 1C DEB", "group": "fengyun-1c-debris", "lat": -71.31949495212244, "lon": -123.94286911928258, "alt_km": 1323.5105282337063, "timestamp": "2025-12-21T14:40:48.196178+00:00", "meta": {"OBJECT_NAME": "FENGYUN 1C DEB", "OBJECT_ID": "1999-025AZS", "EPOCH": "2025-12-20T18:09:11.272608", "MEAN_MOTION": 13.2224863, "ECCENTRICITY": 0.0449911, "INCLINATION": 98.8825, "RA_OF_ASC_NODE": 82.8763, "ARG_OF_PERICENTER": 12.2206, "MEAN_ANOMALY": 136.7519, "EPHEMERIS_TYPE": 0, "CLASSIFICATION_TYPE": "U", "NORAD_CAT_ID": 30928, "ELEMENT_SET_NO": 999, "REV_AT_EPOCH": 90454, "BSTAR": 0.00084878319, "MEAN_MOTION_DOT": 5.68e-06, "MEAN_MOTION_DDOT": 0}, "tle": {"line1": "1 30928U 99025AZS 25354.75638047  .00000568  00000+0  84878-3 0  9992", "line2": "2 30928  98.8825  82.8763 0449911  12.2206 136.7519 13.22248630904544"}}, "geometry": {"type": "Point", "coordinates": [-123.94286911928258, -71.31949495212244]}}, {"type": "Feature", "properties": {"norad_id": 30930, "name": "FENGYUN 1C DEB", "group": "fengyun-1c-debris", "lat": 65.96004278461905, "lon": -137.59532038897703, "alt_km": 694.392840123628, "timestamp": "2025-12-21T14:40:48.196190+00:00", "meta": {"OBJECT_NAME": "FENGYUN 1C DEB", "OBJECT_ID": "1999-025AZU", "EPOCH": "2025-12-21T00:56:23.479296", "MEAN_MOTION": 14.3740646, "ECCENTRICITY": 0.01097277, "INCLINATION": 98.2145, "RA_OF_ASC_NODE": 22.9623, "ARG_OF_PERICENTER": 81.6499, "MEAN_ANOMALY": 309.4863, "EPHEMERIS_TYPE": 0, "CLASSIFICATION_TYPE": "U", "NORAD_CAT_ID": 30930, "ELEMENT_SET_NO": 999, "REV_AT_EPOCH": 98451, "BSTAR": 0.0002328007, "MEAN_MOTION_DOT": 7.03e-06, "MEAN_MOTION_DDOT": 0}, "tle": {"line1": "1 30930U 99025AZU 25355.03916064  .00000703  00000+0  23280-3 0  9996", "line2": "2 30930  98.2145  22.9623 0109727  81.6499 309.4863 14.37406460984518"}}, "geometry": {"type": "Point", "coordinates": [-137.59532038897703, 65.96004278461905]}}, {"type": "Feature", "properties": {"norad_id": 30931, "name": "FENGYUN 1C DEB", "group": "fengyun-1c-debris", "lat": -60.18787483643472, "lon": -143.18784536557135, "alt_km": 943.5231547651838, "timestamp": "2025-12-21T14:40:48.196200+00:00", "meta": {"OBJECT_NAME": "FENGYUN 1C DEB", "OBJECT_ID": "1999-025AZV", "EPOCH": "2025-12-19T22:58:08.275008", "MEAN_MOTION": 14.01524482, "ECCENTRICITY": 0.009291, "INCLINATION": 99.1714, "RA_OF_ASC_NODE": 51.5262, "ARG_OF_PERICENTER": 21.5866, "MEAN_ANOMALY": 156.7563, "EPHEMERIS_TYPE": 0, "CLASSIFICATION_TYPE": "U", "NORAD_CAT_ID": 30931, "ELEMENT_SET_NO": 999, "REV_AT_EPOCH": 96026, "BSTAR": 0.00041538, "MEAN_MOTION_DOT": 6.07e-06, "MEAN_MOTION_DDOT": 0}, "tle": {"line1": "1 30931U 99025AZV 25353.95704022  .00000607  00000+0  41538-3 0  9994", "line2": "2 30931  99.1714  51.5262 0092910  21.5866 156.7563 14.01524482960266"}}, "geometry": {"type": "Point", "coordinates": [-143.18784536557135, -60.18787483643472]}}, {"type": "Feature", "properties": {"norad_id": 30932, "name": "FENGYUN 1C DEB", "group": "fengyun-1c-debris", "lat": -76.2711783902373, "lon": 68.72830489907142, "alt_km": 768.7842130829513, "timestamp": "2025-12-21T14:40:48.196212+00:00", "meta": {"OBJECT_NAME": "FENGYUN 1C DEB", "OBJECT_ID": "1999-025AZW", "EPOCH": "2025-12-19T12:39:33.490080", "MEAN_MOTION": 14.2688755, "ECCENTRICITY": 0.0057242, "INCLINATION": 98.9092, "RA_OF_ASC_NODE": 286.5528, "ARG_OF_PERICENTER": 274.4941, "MEAN_ANOMALY": 84.9701, "EPHEMERIS_TYPE": 0, "CLASSIFICATION_TYPE": "U", "NORAD_CAT_ID": 30932, "ELEMENT_SET_NO": 999, "REV_AT_EPOCH": 96491, "BSTAR": 0.0017748, "MEAN_MOTION_DOT": 4.34e-05, "MEAN_MOTION_DDOT": 0}, "tle": {"line1": "1 30932U 99025AZW 25353.52747095  .00004340  00000+0  17748-2 0  9998", "line2": "2 30932  98.9092 286.5528 0057242 274.4941  84.9701 14.26887550964917"}}, "geometry": {"type": "Point", "coordinates": [68.72830489907142, -76.2711783902373]}}, {"type": "Feature", "properties": {"norad_id": 30933, "name": "FENGYUN 1C DEB", "group": "fengyun-1c-debris", "lat": 69.07641138147747, "lon": -176.8209488491023, "alt_km": 816.4527152551173, "timestamp": "2025-12-21T14:40:48.196224+00:00", "meta": {"OBJECT_NAME": "FENGYUN 1C DEB", "OBJECT_ID": "1999-025AZX", "EPOCH": "2025-12-19T22:18:47.421792", "MEAN_MOTION": 14.36676706, "ECCENTRICITY": 0.0076083, "INCLINATION": 99.0476, "RA_OF_ASC_NODE": 336.7828, "ARG_OF_PERICENTER": 302.1062, "MEAN_ANOMALY": 112.3858, "EPHEMERIS_TYPE": 0, "CLASSIFICATION_TYPE": "U", "NORAD_CAT_ID": 30933, "ELEMENT_SET_NO": 999, "REV_AT_EPOCH": 95975, "BSTAR": 0.0030814, "MEAN_MOTION_DOT": 9.344e-05, "MEAN_MOTION_DDOT": 0}, "tle": {"line1": "1 30933U 99025AZX 25353.92971553  .00009344  00000+0  30814-2 0  9999", "line2": "2 30933  99.0476 336.7828 0076083 302.1062 112.3858 14.36676706959759"}}, "geometry": {"type": "Point", "coordinates": [-176.8209488491023, 69.07641138147747]}}, {"type": "Feature", "properties": {"norad_id": 30934, "name": "FENGYUN 1C DEB", "group": "fengyun-1c-debris", "lat": 60.97397545318166, "lon": -144.62086476177916, "alt_km": 823.9646980287689, "timestamp": "2025-12-21T14:40:48.196234+00:00", "meta": {"OBJECT_NAME": "FENGYUN 1C DEB", "OBJECT_ID": "1999-025AZY", "EPOCH": "2025-12-20T22:20:35.453760", "MEAN_MOTION": 13.46770628, "ECCENTRICITY": 0.0341134, "INCLINATION": 98.7655, "RA_OF_ASC_NODE": 230.925, "ARG_OF_PERICENTER": 60.6619, "MEAN_ANOMALY": 302.814, "EPHEMERIS_TYPE": 0, "CLASSIFICATION_TYPE": "U", "NORAD_CAT_ID": 30934, "ELEMENT_SET_NO": 999, "REV_AT_EPOCH": 91818, "BSTAR": 0.0017956, "MEAN_MOTION_DOT": 1.513e-05, "MEAN_MOTION_DDOT": 0}, "tle": {"line1": "1 30934U 99025AZY 25354.93096590  .00001513  00000+0  17956-2 0  9993", "line2": "2 30934  98.7655 230.9250 0341134  60.6619 302.8140 13.46770628918185"}}, "geometry": {"type": "Point", "coordinates": [-144.62086476177916, 60.97397545318166]}}, {"type": "Feature", "properties": {"norad_id": 30936, "name": "FENGYUN 1C DEB", "group": "fengyun-1c-debris", "lat": 18.52374659320082, "lon": 23.29287767419956, "alt_km": 827.6968221198113, "timestamp": "2025-12-21T14:40:48.196244+00:00", "meta": {"OBJECT_NAME": "FENGYUN 1C DEB", "OBJECT_ID": "1999-025BAA", "EPOCH": "2025-12-21T01:21:14.948928", "MEAN_MOTION": 14.23390695, "ECCENTRICITY": 0.004601, "INCLINATION": 98.5807, "RA_OF_ASC_NODE": 25.6513, "ARG_OF_PERICENTER": 266.0485, "MEAN_ANOMALY": 148.7388, "EPHEMERIS_TYPE": 0, "CLASSIFICATION_TYPE": "U", "NORAD_CAT_ID": 30936, "ELEMENT_SET_NO": 999, "REV_AT_EPOCH": 97251, "BSTAR": 0.00036386309, "MEAN_MOTION_DOT": 7.91e-06, "MEAN_MOTION_DDOT": 0}, "tle": {"line1": "1 30936U 99025BAA 25355.05642302  .00000791  00000+0  36386-3 0  9993", "line2": "2 30936  98.5807  25.6513 0046010 266.0485 148.7388 14.23390695972519"}}, "geometry": {"type": "Point", "coordinates": [23.29287767419956, 18.52374659320082]}}, {"type": "Feature", "properties": {"norad_id": 30937, "name": "FENGYUN 1C DEB", "group": "fengyun-1c-debris", "lat": 42.38167329492483, "lon": 39.45016428172259, "alt_km": 852.1771980701069, "timestamp": "2025-12-21T14:40:48.196254+00:00", "meta": {"OBJECT_NAME": "FENGYUN 1C DEB", "OBJECT_ID": "1999-025BAB", "EPOCH": "2025-12-21T01:01:47.409312", "MEAN_MOTION": 13.95588325, "ECCENTRICITY": 0.00754698, "INCLINATION": 99.088, "RA_OF_ASC_NODE": 47.2881, "ARG_OF_PERICENTER": 30.6555, "MEAN_ANOMALY": 36.3089, "EPHEMERIS_TYPE": 0, "CLASSIFICATION_TYPE": "U", "NORAD_CAT_ID": 30937, "ELEMENT_SET_NO": 999, "REV_AT_EPOCH": 95832, "BSTAR": 4.5472301e-05, "MEAN_MOTION_DOT": 1.9e-07, "MEAN_MOTION_DDOT": 0}, "tle": {"line1": "1 30937U 99025BAB 25355.04290983  .00000019  00000+0  45472-4 0  9997", "line2": "2 30937  99.0880  47.2881 0075469  30.6555  36.3089 13.95588325958328"}}, "geometry": {"type": "Point", "coordinates": [39.45016428172259, 42.38167329492483]}}, {"type": "Feature", "properties": {"norad_id": 30938, "name": "FENGYUN 1C DEB", "group": "fengyun-1c-debris", "lat": 2.3079010090923284, "lon": -170.80828417356895, "alt_km": 853.7344779082841, "timestamp": "2025-12-21T14:40:48.196264+00:00", "meta": {"OBJECT_NAME": "FENGYUN 1C DEB", "OBJECT_ID": "1999-025BAC", "EPOCH": "2025-12-20T07:28:29.449344", "MEAN_MOTION": 14.19829984, "ECCENTRICITY": 0.00455347, "INCLINATION": 98.5904, "RA_OF_ASC_NODE": 7.5809, "ARG_OF_PERICENTER": 321.6523, "MEAN_ANOMALY": 54.0711, "EPHEMERIS_TYPE": 0, "CLASSIFICATION_TYPE": "U", "NORAD_CAT_ID": 30938, "ELEMENT_SET_NO": 999, "REV_AT_EPOCH": 97227, "BSTAR": 0.00026359617, "MEAN_MOTION_DOT": 5.22e-06, "MEAN_MOTION_DDOT": 0}, "tle": {"line1": "1 30938U 99025BAC 25354.31145196  .00000522  00000+0  26360-3 0  9995", "line2": "2 30938  98.5904   7.5809 0045534 321.6523  54.0711 14.19829984972272"}}, "geometry": {"type": "Point", "coordinates": [-170.80828417356895, 2.3079010090923284]}}, {"type": "Feature", "properties": {"norad_id": 30940, "name": "FENGYUN 1C DEB", "group": "fengyun-1c-debris", "lat": 79.63440518701984, "lon": -128.38828464545932, "alt_km": 871.1690262311859, "timestamp": "2025-12-21T14:40:48.196274+00:00", "meta": {"OBJECT_NAME": "FENGYUN 1C DEB", "OBJECT_ID": "1999-025BAE", "EPOCH": "2025-12-19T11:47:40.505856", "MEAN_MOTION": 14.08314856, "ECCENTRICITY": 0.0040825, "INCLINATION": 98.6224, "RA_OF_ASC_NODE": 353.5356, "ARG_OF_PERICENTER": 344.5495, "MEAN_ANOMALY": 167.3735, "EPHEMERIS_TYPE": 0, "CLASSIFICATION_TYPE": "U", "NORAD_CAT_ID": 30940, "ELEMENT_SET_NO": 999, "REV_AT_EPOCH": 96227, "BSTAR": 0.00030983, "MEAN_MOTION_DOT": 4.92e-06, "MEAN_MOTION_DDOT": 0}, "tle": {"line1": "1 30940U 99025BAE 25353.49144104  .00000492  00000+0  30983-3 0  9996", "line2": "2 30940  98.6224 353.5356 0040825 344.5495 167.3735 14.08314856962270"}}, "geometry": {"type": "Point", "coordinates": [-128.38828464545932, 79.63440518701984]}}]}